Name,Dirección,Ciudad,Provincia,LATITUD,LONGITUD
COMERCIAL RANQUELES,AVDA. 9 DE JULIO  Y RANQUELES,CORONEL MOLDES,Córdoba,-33.6263195,-64.6038385
NTI 2019 - AGROPETROLERA CHAJARI,AV. DR. CASILLAS 1010,CHAJARI,Entre Rios,-30.7617471,-58.0117228
AGROPETROLERA CHAJARI SRL,ENTRE RIOS 997,CONCORDIA,Entre Rios,-31.3906779,-58.0171817
AGROPETROLERA CHAJARI SRL,"RUTA NAC.14 KM.320,8",CHAJARI,Entre Rios,-30.8185030,-58.0442480
ALABERT MARIA ANTONIA,RUTAS 81 Y 11,FORMOSA,Formosa,-26.1151314,-58.2283688
AGROENERGIA S A,AV CIRCUNVALACION Y CALLE SCHMIDT,SANTA ROSA,La Pampa,-36.6436110,-64.2772220
ALGAR SRL,MITRE Y SAN LORENZO,SAN MIGUEL - GBA,Buenos Aires,-34.5374470,-58.7072580
ALLI VAMOS SA,DIRECTORIO 1394 Y   CALLAO,TORTUGUITAS - GBA,Buenos Aires,-34.4638588,-58.7442385
ALVAREZ OSCAR NORBERTO Y RADAMES,MENDOZA 205,MORON - GBA,Buenos Aires,-34.6461605,-58.6224096
FGC Fuels Marketing SA,AV. REPUBLICA Y COLOMBRES 280,RAMOS MEJIA - GBA,Buenos Aires,-34.6373580,-58.5528870
AMULEM SA,RUTA NAC. 3 KM. 1262,SIERRA GRANDE,Rio Negro,-41.6125870,-65.3534031
ANCONETANI NORBERTO JORGE ,TUCUMAN ESQ.VIQUEIRA,BELL VILLE,Córdoba,-32.6288220,-62.6933530
ANDRICH E HIJOS SC,AV COLON 1588,OLAVARRIA,Buenos Aires,-36.8816670,-60.3275000
ESTACIÓN RAMOS SA,AVDA DE MAYO 1601 - ESQUINA PASCO,RAMOS MEJIA - GBA,Buenos Aires,-34.6571639,-58.5627433
COMERCIAL ARGON SA,PERU 1310,MENDOZA,Mendoza,-32.8866170,-68.8479170
ARRATE JOSE LUIS,CALLE 59 ESQ. 80,NECOCHEA,Buenos Aires,-38.5458330,-58.7497220
ARROYITOS SERVICIOS SA,RUTA NAC. 19 KM.222,ARROYITO,Córdoba,-31.4218521,-63.0372620
PAINEN S.R.L,AV. FERNANDEZ ORO   Y SARMIENTO,CIPOLLETTI,Rio Negro,-38.9416670,-67.9943670
PAINEN S.R.L,RIVADAVIA Y M.      MORENO,CIPOLLETTI,Rio Negro,-38.9324170,-68.0081830
ATALAYA SRL,RUTA NAC. 9 KM 463 ,LEONES,Córdoba,-32.6536754,-62.2933711
ATREUCO PUEL SA,RUTA 74 Y CALLE 26,GENERAL MADARIAGA,Buenos Aires,-37.0181219,-57.1166559
BAIGAS SRL,BAIGORRIA 1870,ROSARIO,Santa Fe,-32.8937460,-60.7074560
CORS LOS INCAS,AVDA. LOS INCAS 3550,CAPITAL FED ZONA 5,Capital Federal,-34.5750780,-58.4629780
OSCAR EMILIO BARRAZA SRL,LAS HERAS 611,GRAL LAMADRID,Buenos Aires,-37.2460000,-61.2638100
BASAVILBASO SRL,ESTRADA 806,BASAVILBASO,Entre Rios,-32.3701270,-58.8866800
BIFUEL SRL,RECTA MARTINOLI 7365,ARGUELLO,Córdoba,-31.3478760,-64.2649750
BELZA ANDRES CARLOS   Ruta 7,FALUCHO Y AV PARQUE,SAN LUIS,San Luis,-33.3164180,-66.3409080
BELZA ANDRES CARLOS   Ruta 3,RUTA PROV. 3 Y ESQ. AV. COSTANERA,SAN LUIS,San Luis,-33.3138890,-66.3294440
SERVICENTRO EL BEBE SRL,RUTA 22 KM. 856,RIO COLORADO,Rio Negro,-38.9865000,-64.1153000
BERSAV SRL SUCESOR DE 155374,RUTA PROV. NRO. 1 KM 38,SANTA ROSA,Santa Fe,-31.4192963,-60.3387451
BERTOLA MARTA MARGARITA,RUTA NAC  7 KM 487,LABOULAYE,Córdoba,-34.1483330,-63.3652780
CHAVARINI JOSE LUIS ,SAN MARTIN 911,SAN CARLOS SUD,Santa Fe,-31.7619583,-61.1015194
BOLONESE ROBERTO DANIEL,AVENIDA SARMIENTO 93,CHIVILCOY,Buenos Aires,-34.8987740,-60.0166600
DELALOMA S.A - SUCESOR DE 155419,RUTA NACIONAL 34 Y  ACCESO,SAN VICENTE,Santa Fe,-31.7020280,-61.5539070
BORTOLON Y URQUIZA - Porteña,25 DE MAYO Y PASAJE COLON,PORTEÑA,Córdoba,-31.0114556,-62.0688972
CRESPO SERVICIOS SRL,RUTA NACIONAL 11 KM 620,GOBERNADOR CRESPO,Santa Fe,-30.3685379,-60.3995991
UNICOMB SRL,FALCON RAMON L CNEL 6398,CAPITAL FED ZONA 5,Capital Federal,-34.6406230,-58.5168800
CORS MASCHWITZ - 164628,AV. VILLANUEVA Y RUTA 9,MASCHWITZ - GBA,Buenos Aires,-34.3947469,-58.7394264
GASPAR BRANDEMANN SRL,DIAGONAL 9 DE JULIO 1275,EDUARDO CASTEX,La Pampa,-35.9138171,-64.3021691
ALVAREZ DARIO BERNARDO,SAN MARTIN 830,GRAL SAN MARTIN - GBA,Buenos Aires,-34.5871980,-58.5261450
SERVICENTRO MALARGÜE,RUTA NAC. 40 Y CALLE PUBLICA,MALARGUE,Mendoza,-35.4559038,-69.5862583
CARNICER MICHAEL DANIEL (Tucuman I),AV. ROCA 3450,S M DEL TUCUMAN,Tucumán,-26.8350410,-65.2510071
CARNICER MICHAEL DANIEL,"CALLE E.CASTELLAR, 1003 Y SUIPACHA",S M DEL TUCUMAN,Tucumán,-26.7960358,-65.2052593
CARIONI RUBEN JOSE RAMON,BV.INT.SAVINO JUAN  GIAVENO 011,BRINCKMANN,Córdoba,-30.8642537,-62.0370807
CARLOS NESTOR FABIAN,AVELLANEDA Y NEUQUEN,PEHUAJO,Buenos Aires,-35.8120330,-61.8863880
JOMALI SRL,CALLE 899 2690(DON.ALVAREZ/IRIARTE),SAN FRANCISCO SOLANO  - GBA,Buenos Aires,-34.7730114,-58.3230212
COMBUSTIBLES EL TREBOL SAS,RUTA NAC.7-KM.694,MERCEDES,San Luis,-33.6482360,-65.4405920
CATAMARCA COMBUSTIBLES SRL,AV. GUEMES Y JUNIN,CATAMARCA,Catamarca,-28.4758568,-65.7825279
CEFARELLI ROBERTO A Y CEFARELLI A T,AV SAN MARTIN 5399,ROSARIO,Santa Fe,-32.9997070,-60.6483740
CENTRO DE SERVICIOS SAN FRANCISCO,AVDA RAWSON NORTE 1251,SAN JUAN,San Juan,-31.5179330,-68.5168000
CENTROMAR SA,BVARD. SILVIO GESELL Y PASEO 107,VILLA GESELL,Buenos Aires,-37.2541550,-56.9785700
CHAVARINI JOSE LUIS ,SAN MARTIN Y GUEMES,SAN JERONIMO NORTE,Santa Fe,-31.5509611,-61.0768056
CIFAMA SRL,"RUTA 5 KM 66,200",LUJAN - GBA,Buenos Aires,-34.5835680,-59.1016630
CIUDAD DE EZEIZA SRL,"RUTA 205 - KM. 33,5",EZEIZA - GBA,Buenos Aires,-34.8498149,-58.5169176
CLAVERO SEBASTIAN ALDO Y OTROS,RUTA NAC. 40 Y RUTA PROV. 319,MEDIA AGUA,San Juan,-31.9798333,-68.4406667
COLLIARD Jose Luis,S. MARTIN Y AMEGHINO,BARADERO,Buenos Aires,-33.8180020,-59.5122470
ROBERTS COMBUSTIBLES SA,GARCIA TUÑON 802,LINCOLN,Buenos Aires,-34.8606325,-61.5390332
COMBYLU SA,CALLE 28 NRO. 5,LA PLATA,Buenos Aires,-34.9205997,-57.9904332
COMBUSTIBLES VILLA MARIA SA,BUENOS AIRES 2100   E INTEND. ARINE,VILLA MARIA,Córdoba,-32.4033890,-63.2317000
COMPIL SRL,9 DE JULIO 202,PILAR - GBA,Buenos Aires,-34.4504347,-58.9062005
CLAVERO ROGELIO E HIJOS SOC DE,J.I DE LA ROSA ESQ. P.A.DE SARMIENT,SAN JUAN,San Juan,-31.5381798,-68.5514257
CRE-AN SA,AV.ROCA (RUTA 201)  ESQ.PASO MORALE,HURLINGHAM - GBA,Buenos Aires,-34.5751928,-58.6463851
CRISMI COMBUSTIBLES SRL,M. BELGRANO 802,PDCIA R S PEÑA,Chaco,-26.7852780,-60.4385309
CRUCESITA SA,AV. MITRE 1270/92,AVELLANEDA - GBA,Buenos Aires,-34.6650079,-58.3593992
BALSUAR 3 SRL - Sucesor de 217337,BV. B. DE IRIGOYEN  Y JUAN DE GARAY,CERES,Santa Fe,-29.8798180,-61.9460678
59 SA,AV. SANTA FE 2428,MARTINEZ - GBA,Buenos Aires,-34.4928850,-58.4984010
DANIELE OMAR JUAN Y EDELMO ARIEL ,BV. H. YRIGOYEN 1101ESQUINA MORENO,MORTEROS,Córdoba,-30.7135690,-62.0043150
DEL NORDESTE SA,AVDA. TAMBOR DE     TACUARI 4951,POSADAS,Misiones,-27.3681620,-55.9245180
DE MARTINO CARLOS ALBERTO ,MORENO Y BELGRANO,OLAVARRIA,Buenos Aires,-36.8938440,-60.3208060
JULIO MARTIN DE SAUTU              AVENIDA,H.IRIGOYEN 200,PERGAMINO,Buenos Aires,-33.8955201,-60.5638472
GESAL SA (Villa Mercerdes),LAVALLE E IRIGOYEN,MERCEDES,San Luis,-33.6873846,-65.4654247
ARGENFUEL,AV. GAONA 502,RAMOS MEJIA - GBA,Buenos Aires,-34.6384430,-58.5727220
CARDINAL SRL,AV.RIVADAVIA OESTE 595 Y BELGRANO,SANTIAGO DEL ESTERO,Santiago del Estero,-27.7843857,-64.2660999
DON EDUARDO SRL,PASAJE MITRE Y RUTA 19,DEVOTO,Córdoba,-31.4074100,-62.3098180
DUNCUE SRL,HIPOLITO YRIGOYEN   Y ACCESO A TIGR (HIP. YRI 3400),SAN FERNANDO  - GBA,Buenos Aires,-34.4526406,-58.5742120
MITRE 1630 SRL SUC 156117,AV. MITRE 1630,FLORIDA - GBA,Buenos Aires,-34.5347785,-58.5095039
EL REGRESO SRL,DANERI Y URQUIZA,GUALEGUAYCHU,Entre Rios,-33.0094960,-58.5365230
SERVICIOS LUARCA SA - Emfaco Leloir,AV.J D PERON ESQ DE LA TROPILLA,PARQUE LELOIR - GBA,Buenos Aires,-34.6283200,-58.6905680
EMFACO SA San Justo,AV. ILLIA Y PERON,SAN JUSTO - GBA,Buenos Aires,-34.6728086,-58.5611397
EMFACO SA - Barcala Gaona,AV. GAONA Y BARCALA,ITUZAINGO - GBA,Buenos Aires,-34.6346724,-58.6677742
EMFACO SA Moreno Gaona,AV.LIBERTADOR 1291 Y GAONA,MORENO - GBA,Buenos Aires,-34.6360837,-58.7859056
EMFACO SA  Graham Bell,AV. DEL LIBERTADOR Y GRAHAM BELL,MORENO - GBA,Buenos Aires,-34.6229470,-58.7753720
EMICAS SRL,AV. EMILIO CASTRO   7541,CAPITAL FED ZONA 1,Capital Federal,-34.6555990,-58.5236040
ENERO CASARES SA,RUTA NAC. NRO. 3 Y  CARLOS CASARES,RAFAEL CASTILLO - GBA,Buenos Aires,-34.7199713,-58.5971148
ESTACION RUTA 8 Y PANAMERICANA,RUTA NACIONAL 8 Y VELEZ SARFIELD,PILAR - GBA,Buenos Aires,-34.4523582,-58.9451067
ESTDE SERV DON CRUZ DE SANTOS Y,RUTA NAC.7 Y PROV.20,CHORRILLO,San Luis,-33.2969440,-66.2750000
ESTADIAS Y SERVICIOS SA,AV. ALMAFUERTE 187,CAPITAL FED ZONA 2,Capital Federal,-34.6405040,-58.4124580
ESTACION DE SERVICIO GOLF SOCIEDAD,AV. S.MARTIN ESQ ENLACE RUTAS 8,RIO CUARTO,Córdoba,-33.1147746,-64.3819071
CORS EMILIO CASTRO - 195636,AVDA. EMILIO CASTRO Y CAFAYATE,CAPITAL FED ZONA 5,Capital Federal,-34.6508730,-58.5127050
ESTACION DE SERVICIO PUNILLA SRL,AV. FREYRE 1647,SANTA FE,Santa Fe,-31.6543300,-60.7213034
NTI 2014 - La Tercera del Oeste,C.PELLEGRINI ESQ. LAS ORQUIDEAS,LUJAN - GBA,Buenos Aires,-34.5515964,-59.1224764
FEBO SA                          ,PELLEGRINI 1480,TRELEW,Chubut,-43.2662388,-65.3005061
VENCUBE SRL,INTENDENTE CHANETON 399,NEUQUEN,Neuquen,-38.9589800,-68.0701900
FERRANDO Y FERRANDO SUCESOR 156379,CASEROS Y RUTA 19,S FRANCISCO,Córdoba,-31.4287987,-62.0974584
SERVICENTRO FETTER,S. MARTIN Y BELGRANO,CASTELLI,Chaco,-25.9480858,-60.6224442
FURFANTO SA,AV. ALVEAR Y RUTA 8,SAN ANTONIO DE ARECO,Buenos Aires,-34.2463090,-59.4623690
FUTOR SA,TRIUNVIRATO 1610 Y NECOCHEA,QUILMES - GBA,Buenos Aires,-34.7421106,-58.2698648
GABISERV SA,INOCENCIO ARIAS 3199,CASTELAR - GBA,Buenos Aires,-34.6491890,-58.6532250
SERVICENTRO NORTE CONCORDIA SRL,BV SAN LORENZO 24 ESQ AV EVA PERON,CONCORDIA,Entre Rios,-31.3852778,-58.0152778
GARCIA SA,FASOLA Y GRAL.ACTIS,HAEDO - GBA,Buenos Aires,-34.6366287,-58.5919825
GENIAL SA,AV.FALUCHO (RUTA    PROV.13) Y ALBE,SAN JORGE,Santa Fe,-31.8990907,-61.8458976
ZAMBON GLADYS ELIZABETH Y LILIANA,RUTA NACIONAL 14 KM 429,COLONIA LIBERTAD,Corrientes,-30.0397120,-57.7677440
RODOPETROL,AV ALEM 1086,BAHIA BLANCA,Buenos Aires,-38.7039449,-62.2693910
DON LUIS SRL,AV ROCA 21,COMODORO RIVADAVIA,Chubut,-45.8841700,-67.5181640
JULIO HUMBERTO GRONDONA SOCIEDAD,AV.DARDO ROCHA 1683,BERNAL - GBA,Buenos Aires,-34.7102790,-58.3088920
"EDWIN GUIFRE, HUGO OMAR FRANCOU Y",RUTA PROV 39 ESQUINA CALLE 23,CASEROS,Entre Rios,-32.4698439,-58.4781900
VALCARA SA - Ex Exfaco,RUTA 3 Y RUTA 205,CAÑUELAS - GBA,Buenos Aires,-35.0270660,-58.7443050
TRESLAUQUEN SOCIEDAD DE RESPONSABIL,G. DEL SOLDATO 417,TRES LOMAS,Buenos Aires,-36.4546830,-62.8592720
HIJOS DE CASTELLI HNOS SRL,AV VILLAMAYOR Y RTA 200,GRAL LAS HERAS - GBA,Buenos Aires,-34.9215500,-58.9567527
HOLLMANN HECTOR FRANCISCO ,BVARD. SAN MARTIN   Y JOSE INGENIER,ZENON PEREYRA,Santa Fe,-31.5580160,-61.8951170
BERRIA ENERGIA (CASBAS),RUTA NAC. 33 KM. 233,CASBAS,Buenos Aires,-36.7686110,-62.5163890
A Y A JACOB S.R.L.,SAN MARTIN Y ESTRADA,CRESPO,Entre Rios,-32.0330560,-60.3097220
JAUREGUI Y MORALES SRL,AV. GRAL PAZ Y ROCA,BOLIVAR,Buenos Aires,-36.2319440,-61.1158330
CORS ZARATE Brazo Largo,RUTA NAC. 193 Y RUTA NAC. 12,ZARATE - GBA,Buenos Aires,-34.1248970,-59.0220680
KAIULANI SA,AV ANTARTIDA ARGENTINA Y FRM,LAVALLOL,Buenos Aires,-34.7924125,-58.4147608
SIK COMBUSTIBLES,VELEZ SARSFIELD Y   DIAMANTE,CONCORDIA,Entre Rios,-31.3909526,-58.0357648
SEGUROLA Y GAONA,SEGUROLA 809 ESQ.   GAONA,CAPITAL FED ZONA 4,Capital Federal,-34.6274560,-58.4902290
KUKE SRL,DIRECTORIO 1796     ESQ. PUMACAHUA,CAPITAL FED ZONA 3,Capital Federal,-34.6312120,-58.4529010
LAS OLAS SRL (SUC PARG SRL),Av. Nestor Kirchner y Ameghino,RIO GALLEGOS,Santa Cruz,-51.6169330,-69.2255930
LA ROTONDA SRL,AV. GUTNISKI Y AV.  GENDARMERIA NAC,FORMOSA,Formosa,-26.1975098,-58.2140350
LAS QUINTAS SRL,CALLE 32 Y 137,LA PLATA,Buenos Aires,-34.9289015,-57.9999096
LA META SRL,AV FUERZA AEREA 1699,CORDOBA RADIO CIUDAD,Córdoba,-31.4305742,-64.2131719
LAURENCENA SRL,AV. SAN MARTIN 3694,LOMAS DEL MIRADOR - GBA,Buenos Aires,-34.6712695,-58.5308728
SERVI CAMPO SRL,BELTRAN E YRIGOYEN,HUINCA RENANCO,Córdoba,-34.8389223,-64.3702518
LEJEM SA,INTENDENTE RABANAL  1733,CAPITAL FED ZONA 1,Capital Federal,-34.6567950,-58.4232140
LICAFRA SA,AV. MITRE 5525,WILDE - GBA,Buenos Aires,-34.6980614,-58.3252952
DEL TRABAJO SRL,SANTA MARINA Y V. LOPEZ,MONTE GRANDE - GBA,Buenos Aires,-34.8201364,-58.4670020
DEL TRABAJO SRL,CNO. DE CINTURA Y M. SASTRE,LAVALLOL,Buenos Aires,-34.8154705,-58.4312885
LOGIOCO JOSE LUIS ,AV SAN MARTIN Y     N L ROBBIO,NUEVE DE JULIO,Buenos Aires,-35.4442060,-60.8872520
LOMALI SA,AV. H. YRIGOYEN Y   MONTEVERDE,BURZACO - GBA,Buenos Aires,-34.8355990,-58.4018330
LOSANO Y CIA SA,BVARD. MORENO 850   ESQ. J.B. ALBER,HERNANDO,Córdoba,-32.4345584,-63.7278788
LOSANO Y CIA SA,RUTA NAC. NRO. 9    KM. 552,VILLA MARIA,Córdoba,-32.4340900,-63.1838900
LOS CERRITOS SA,RUTA NAC. 12 Y AV.  SGTO. CABRAL,SAN IGNACIO,Misiones,-27.2674090,-55.5393650
LOS SAUCES SA,AV. ITALIA 955,FORMOSA,Formosa,-26.1681495,-58.1821948
LLANTAY SRL,PTE.CASTILLO 1160 ESQ. C. DE LA V,CATAMARCA,Catamarca,-28.4594750,-65.7549560
MADRASSI Y CIA SA,TUCUMAN 165,CLORINDA,Formosa,-25.2871895,-57.7233982
MARINO JOSE LUIS ,RUTA NAC. 5 KM. 366,PEHUAJO,Buenos Aires,-35.8385111,-61.8747222
Transportes Rosania - Ex DATRI B - sucesor de 198608,AV. EVA PERON 4199,TEMPERLEY - GBA,Buenos Aires,-34.7551631,-58.3480140
MELIPAL SA Av Peñaloza,AVDA. ANGEL VICENTE PEÑALOZA 820,LA RIOJA,La Rioja,-29.4036937,-66.8450356
OASIS SOCIEDAD RESPONSABILIDAD,AV. SAN MARTIN Y PELLEGRINI,RIO GRANDE,Tierra del Fuego,-53.7739800,-67.7242460
METGER SA,HIPOLITO IRIGOYEN   901,RAFAELA,Santa Fe,-31.2610720,-61.4934400
SERVICENTROS DEL OESTE SA (EX CANELA OSCAR ANTONIO),RUTA NAC. 34 Y RUTA 70,RAFAELA,Santa Fe,-31.2592200,-61.5073660
METGER SA,AV. LEMMAN Y MAIPU,RAFAELA,Santa Fe,-31.2509650,-61.4915940
NTI 2016 - MEYER RICARDO ALBERTO,AVDA. SANTA FE 1845,CAÑADA DE GOMEZ,Santa Fe,-32.8080200,-61.4057300
OPERADORA COMERCIAL SA,AV MONTEAGUDO 1824,POSADAS,Misiones,-27.3911690,-55.8973220
OPERADORA COMERCIAL SA - Posadas,LA RIOJA 2024,POSADAS,Misiones,-27.3685030,-55.8961810
LUIS Y NORBERTO MONDINO SA,AVENIDA LIBERTADOR (N) 1398,SAN FRANCISCO,Córdoba,-31.4171460,-62.0819060
El Crucero (Sucesión Moreschi),AV. LIBERTADOR 1980,ALTA GRACIA,Córdoba,-31.6586556,-64.4099722
MIGUEL ROBERTO MUKDISE HNOS SOC,J.B.ALBERDI Y ESPANA,TERMAS D R HONDO,Santiago del Estero,-27.4929237,-64.8665714
NICIFORO HNOS SH,EX RUTA 5 KM 100,MERCEDES,Buenos Aires,-34.6671700,-59.4398550
9 DE JULIO COMBUSTIBLES SRL,AV.9 DE JULIO 1501,RESISTENCIA,Chaco,-27.4626923,-58.9728928
COMBUSTIBLES SERRANOS SA,BUENOS AIRES 397,LA FALDA,Córdoba,-31.0891842,-64.4889225
OTEGUI ROBERTO SIMON ,AV. COLON 499,PERGAMINO,Buenos Aires,-33.8910310,-60.5806410
PAMISA SRL,RUTA NAC. 151 KM.30,BARDA DEL MEDIO,Rio Negro,-38.7264610,-68.1608220
BERNHARDT CARLOS RODOLFO LUIS MARTIN ,URQUIZA 1375 Y RUTA 127,VILLA FEDERAL,Entre Rios,-30.9514736,-58.7858740
PETROTRES SA,RUTA 228 Y AVDA.    MONTEAGUDO,TRES ARROYOS,Buenos Aires,-38.3808333,-60.2519444
PETROSUR SA,AV.COLON Y CAYETANO SILVA,CORDOBA RADIO CIUDAD,Córdoba,-31.4026860,-64.2192410
PETROLERA ITALMAC SRL,AV.H ILLIA Y EL PALENQUE,SAN SALVADOR DE JUJUY,Jujuy,-24.1699409,-65.3124332
PETRONORTE SRL,BELGRANO Y 9 DE     JULIO,CHAJARI,Entre Rios,-30.7548000,-57.9837640
REICHEL SA,RUTA NACIONAL 11 KM. 793,AVELLANEDA,Santa Fe,-29.1090560,-59.6503730
FULL PETROL S.A.SUCESOR DE 157778,Av 6 de Julio 1358,CAÑADA DE GOMEZ,Santa Fe,-32.8205556,-61.3944806
PONCE JOSE MARIA - Alberdi 1,PEDRO GOYENA 495 Y  BELISARIO ROLDA,RIO CUARTO,Córdoba,-33.1364330,-64.3355490
EDUMO S.R.L. SUCESOR DE 157802,AV. SAN MARTIN Y    URQUIZA,SAN JUAN,San Juan,-31.5337170,-68.5458000
POTENCAR SRL,AV. SAN MARTIN 1934,CASEROS - GBA,Buenos Aires,-34.5997131,-58.5614766
PROVINCIAS UNIDAS N 1590 SA E F,AVDA PCIAS UNIDAS 1590,LOMAS DEL MIRADOR - GBA,Buenos Aires,-34.6710460,-58.5372890
MENENDEZ Y CIA SRL,ARISTOBULO DEL VALLE 5621,SANTA FE,Santa Fe,-31.6161100,-60.6976870
PUERTA SA,BELGRANO 541,APOSTOLES,Misiones,-27.9171316,-55.7566536
PUERTA SA,AV.REP.ORIENTAL DEL URUGUAY 3794 (Y AV.CABRED),POSADAS,Misiones,-27.3840310,-55.9001750
PUERTA SA,AV. QUARANTA 4150,POSADAS,Misiones,-27.4020278,-55.9217667
SERVICENTRO SANTO TOME SRL,AV. 7 DE MARZO  Y   J. MACIAS,SANTO TOME,Santa Fe,-31.6677475,-60.7562542
TREMEN SRL,ANGEL GALLARDO 1472,BARILOCHE,Rio Negro,-41.1388889,-71.2888889
RIAMBER SA - Temperley,"AV. H. IRIGOYEN, 10101",TEMPERLEY - GBA,Buenos Aires,-34.7741490,-58.4054255
ROCAL SRL,REMEDIOS DE ESCALADA1389,LANUS - GBA,Buenos Aires,-34.6851325,-58.3983453
RODOVIA SA,AV.SESQUICENTENARIO Y RUTA NAC. 3,BORDEU,Buenos Aires,-38.7048912,-62.3375416
CORS FLORENCIO VARELA - 199968,AV.SAN MARTIN 3188,FLORENCIO VARELA - GBA,Buenos Aires,-34.8088820,-58.2776460
RODSTATION SA,"CALCHAQUI KM. 22,3",QUILMES - GBA,Buenos Aires,-34.7671158,-58.2724700
ROMA COMBUSTIBLES SA,SANTA FE Y BROWN,VENADO TUERTO,Santa Fe,-33.7365280,-61.9634440
ROMA COMBUSTIBLES SA,OVIDIO LAGOS 56,VENADO TUERTO,Santa Fe,-33.7584170,-61.9711830
BRIMAK,H. YRIGOYEN Y AREVALO,LOBOS,Buenos Aires,-35.1775570,-59.0904540
SAVOIA SA,COMODORO RIVADAVIA  315,CARMEN DE PATAGONES,Buenos Aires,-40.8002780,-62.9822220
YAPAI SRL - SUCESOR DE 157975,MORENO Y MITRE,GRAL VILLEGAS,Buenos Aires,-35.0352500,-63.0049080
ROSARIO DUAL SA  2 Rosario,BV. SEGUI Y AVELLANEDA,ROSARIO,Santa Fe,-32.9716470,-60.6869470
SERVICENTRO SAN RAFAEL,AV. H.YRIGOYEN ESQ. GERONIMO ESPEJO,SAN RAFAEL,Mendoza,-34.6094200,-68.3483100
RUTA 12 SA,RUTA NACIONAL 12    KM 78.5,CAMPANA - GBA,Buenos Aires,-34.1653850,-58.9771190
RUTA UNO SRL,RUTA PROV.1 Y ENLACERUTA PROV. 5,MERLO,San Luis,-32.3487139,-65.0154972
COMBUSTIBLES EL TREBOL SAS,RUTA 7 KM. 695.2,MERCEDES,San Luis,-33.6473860,-65.4552360
SAO COMB SOCIEDAD ANONIMA,BELGRANO Y ALEMANDRI,S ANTONIO OESTE,Rio Negro,-40.7305560,-64.9530560
GEMACO SOCIEDADE ANONIMA,CDTE N. QUENON ESQ. JM ESTRADA,RIO CUARTO,Córdoba,-33.1364833,-64.3674917
SAN JOSE SH - ANA VILLAR,AV. MITRE 3202,MUNRO - GBA,Buenos Aires,-34.5220126,-58.5226331
AGAF SA,AV.FUERZA AEREA 4510,CORDOBA RADIO CIUDAD,Córdoba,-31.4323690,-64.2458310
GRUPO SAN EDUARDO SAS,BV. GUZMAN Y ALVEAR,CORDOBA RADIO CIUDAD,Córdoba,-31.4074900,-64.1776900
CORS BULNES - 199969,BULNES 204 ESQUINA LUQUE,CORDOBA RADIO CIUDAD,Córdoba,-31.4000890,-64.1733470
FOURMAX,RUTA NAC. 9 - KM.206,RAMALLO,Buenos Aires,-33.5429337,-60.0989446
SCHOLLES OMAR ALBERTO,RUTA NAC. 14 KM 1048 Y ACCESO A SAN PEDRO,SAN PEDRO,Misiones,-26.6157330,-54.1129170
JOSE AFID SCHAMUN SRL,SENADOR SALIM Y RUTA 157,FRIAS,Santiago del Estero,-28.6386681,-65.1147366
SCHULZ ORLANDO Y HERALDO SOCIEDAD,RUTA 90 Y ACCESO,GRAL SAN MARTIN,Chaco,-26.5425570,-59.3289020
SCHULZ ORLANDO Y HERALDO SOCIEDAD,RUTA PROV. 3 Y C.   LARRALDE,EL COLORADO,Formosa,-26.2978935,-59.3670845
SECORVEP SA,DR. RAMON Y ALTE. BROWN,NEUQUEN,Neuquen,-38.9422035,-68.0627060
SERVI JOSE CARASA SOC DE HECHO DE,AV. SAN MARTIN 3502 ESQ. SAAVEDRA,ROSARIO,Santa Fe,-32.9784550,-60.6444170
SERVICIOS PADUA SA,RIVADAVIA 24498,S ANTONIO DE PADUA - GBA,Buenos Aires,-34.6673783,-58.7094633
SERVICIOS PADUA SA (Merlo),RUTA 200 Y MENDOZA,MERLO  - GBA,Buenos Aires,-34.6653901,-58.7356654
SERVI BROWN SA,PRIMERA JUNTA 257,QUILMES - GBA,Buenos Aires,-34.7319667,-58.2482333
ERNESTO VESCIA,AV. CÁRCANO 1048 (Y SANTIAGO DEL ESTERO),VILLA CARLOS PAZ,Córdoba,-31.4381944,-64.5012111
ERNESTO VESCIA,AV. SAN MARTIN 1010,VILLA CARLOS PAZ,Córdoba,-31.4144500,-64.4883500
SERVICENTROS OBERA SA,SARMIENTO 1281,OBERA,Misiones,-27.4874830,-55.1252720
LOS CERRITOS SA,AV. 9 DE JULIO Y    RUTA 12,JARDIN DE AMERICA,Misiones,-27.0373420,-55.2273890
SERVICENTROS OBERA SA,RUTA NAC. 14 KM. 1120,OBERA,Misiones,-27.5018190,-55.1119110
7 DE AGOSTO SRL,RUTA 22 Y ACCESO A  BILO,ALLEN,Rio Negro,-39.0103917,-67.8365167
SILVESTRE ALBERTO JOSE Y RUBEN RAUL,DR BORSOTTI 285,CERRITO,Entre Rios,-31.5852780,-60.0725000
CORS VILLA ALLENDE - 192623,AV GOYCOCHEA 1235,VILLA ALLENDE,Córdoba,-31.2998280,-64.2875920
COMBUSTIBLES DEL LITORAL,RUTA NAC. 14 KM. 681,SANTO TOME,Corrientes,-28.5809040,-56.0853700
LOMA PORA,RUTA NAC. 14 KM. 686,SANTO TOME,Corrientes,-28.5491320,-56.0775770
SRUR SRL,SANTOS VEGA Y PALMA,VILLA BOSCH - GBA,Buenos Aires,-34.5833781,-58.5807323
SERVICENTRO SAN CRISTOBAL,AVDA CAMPOS 102,LOBERIA,Buenos Aires,-38.1622640,-58.7819340
SUCESORES DE JOSE ERCOLE GRASSO,RUTA NAC 158 ESQ.   DIAGONAL ESTE P,POZO DEL MOLLE,Córdoba,-32.0161270,-62.9155580
SUMAJ SRL,RUTA NAC. 157 Y     GUEMES,RECREO,Catamarca,-29.2725754,-65.0558281
LINFIS,AV. GRAL. SAVIO 665,SAN NICOLAS,Buenos Aires,-33.3471120,-60.2071970
TOMAS HNOS Y CIA SA,RUTA 5 KM 309,CARLOS CASARES,Buenos Aires,-35.6418364,-61.3664922
EXFACO TESEI,AV. PTE PERON 4531 ESQ. G DONAK 8,HURLINGHAM - GBA,Buenos Aires,-34.6321058,-58.6259384
JORGE TRAVANI Y CIA,BDO DE IRIGOYEN 1190,GENERAL RODRIGUEZ - GBA,Buenos Aires,-34.6096670,-58.9472800
JYF SRL,BELGRANO Y TUCUMAN,CATAMARCA,Catamarca,-28.4604263,-65.7751465
CORS TRELLES   ,AV. GAONA 2399 Y TRELLES,CAPITAL FEDERAL,Capital Federal,-34.6141520,-58.4605830
PARQUE CONSTITUCIÓN,CONSTITUCION 4703,MAR DEL PLATA,Buenos Aires,-37.9668190,-57.5506280
CORS CABILDO - 158594,CABILDO 695 ESQ. OLLEROS,CAPITAL FED ZONA 4,Capital Federal,-34.5703100,-58.4437280
BERRIA ENERGIA (AZUL),"RUTA NACIONAL 3, KM. 298",AZUL,Buenos Aires,-36.7769432,-59.8234177
CORS PELLIZA - 158600,M. PELLIZA Y ROSSETI 3685,OLIVOS - GBA,Buenos Aires,-34.5174571,-58.5130820
SAN JOAQUIN - CASANOVA,AV. PCIAS. UNIDAS Y QUESADAS RUTA 3,ISIDRO CASANOVA - GBA,Buenos Aires,-34.7017479,-58.5801315
SERVICENTRO PILAR SRL,SAN MARTIN Y SAN JUAN ,PILAR,Santa Fe,-31.4315033,-61.2575054
VENTURA ANTONIO - Gral Roca,TUCUMAN Y AV. SAN   JUAN  GRAL. ROC,GRAL ROCA,Rio Negro,-39.0270615,-67.5868893
CORS EL CLUB - 158619,AV. LIBERTADOR 299,VICENTE LOPEZ - GBA,Buenos Aires,-34.5321705,-58.4684317
CORS GARAY - 158621,AV. J. DE GARAY 1302,CAPITAL FED ZONA 1,Capital Federal,-34.6272070,-58.3846210
CORS ANCHORENA - 158623,AV. RIVADAVIA 3199 ESQ. ANCHORENA,CAPITAL FED ZONA 2,Capital Federal,-34.6102890,-58.4115220
CORS DEL TEJAR - 158625,MONROE 3078,CAPITAL FED ZONA 5,Capital Federal,-34.5621070,-58.4659950
CORS FLORESTA - 158629,AV. RIVADAVIA Y JOAQUIN V. GONZ,CAPITAL FED ZONA 7,Capital Federal,-34.6329570,-58.4792520
CORS QUILMES - 158633,PERON 250,QUILMES - GBA,Buenos Aires,-34.7277545,-58.2614521
CORS DIALOGOS - 158636,MITRE 852,CAMPANA - GBA,Buenos Aires,-34.1632595,-58.9606719
CORS MAIPU - 158646,AV. MAIPU Y F. BARDIVICENTE LOPEZ,VICENTE LOPEZ - GBA,Buenos Aires,-34.5280861,-58.4811250
CORS LA BANDERA,SAN MARTIN 1983,ROSARIO,Santa Fe,-32.9608730,-60.6400060
CORS ALSINA - 158652,AV.JUJUY Y ALSINA,CAPITAL FED ZONA 4,Capital Federal,-34.6121840,-58.4054000
CORS PARQUE SARMIENTO - 158654,AV. TRIUNVIRATO Y CRISOLOGO LARRA,CAPITAL FED ZONA 5,Capital Federal,-34.5638260,-58.4966750
CORS SAN ISIDRO - 158656,AV. ROLON Y BLANCO ENCALADA,BOULOGNE - GBA,Buenos Aires,-34.4943380,-58.5514670
CORS SANTA FE - 158676,RUTA 168 KM 476,SANTA FE,Santa Fe,-31.6413689,-60.6590939
CORS VILLA LURO - 158678,J.B. JUSTO Y L. DE  VEGA,CAPITAL FED ZONA 7,Capital Federal,-34.6321440,-58.5015010
CORS LUIS VIALE - 158680,AV. SAN MARTIN Y LUIS VIALE,CAPITAL FED ZONA 1,Capital Federal,-34.6062090,-58.4508310
CORS AMANECER - 158690,AV F BEIRO Y MOLIERE,CAPITAL FED ZONA 1,Capital Federal,-34.6157560,-58.5278240
CORS FISHERTON - 158694,AV. EVA PERON 8159 ,ROSARIO,Santa Fe,-32.9286667,-60.7383639
PLAZA ITALIA  COMBUSTIBLES DE PINAMAR,DIAGONAL 77 - 673,LA PLATA,Buenos Aires,-34.9108330,-57.9563890
CORS CONGRESO - 158698,AV CONGRESO 4801,CAPITAL FED ZONA 5,Capital Federal,-34.5677390,-58.4869590
ByF S.R.L - Limay (EX CODO VENCUBE),RUTA 22 Y SATURNINO TORRES,NEUQUEN,Neuquen,-38.9600945,-68.0397892
VICCEL SRL,CNO. GRAL. BELGRANO Y AV. ARANA,VILLA ELISA,Buenos Aires,-34.8692835,-58.0970943
CORS SANTA RITA - 158707,AV. ROLON 603,BOULOGNE - GBA,Buenos Aires,-34.4973850,-58.5556100
CORS ALBERDI - 158709,AV. LA PLATA 575,CAPITAL FED ZONA 1,Capital Federal,-34.6219400,-58.4280750
CORS AMERICA - 158711,AV. GRAL MOSCONI 2500,CAPITAL FED ZONA 5,Capital Federal,-34.5835150,-58.4973000
EL UNICO ,JUAN B.JUSTO Y M.DE HOZ,MAR DEL PLATA,Buenos Aires,-38.0407906,-57.5426102
CORS GRAL PAZ CAP - 158715,AV. GRAL PAZ KM. 15,CAPITAL FED ZONA 7,Capital Federal,-34.6457909,-58.5289452
CORS GRAL PAZ PCIA - 158717,AV. GRAL PAZ KM. 15 CIUDADELA,CAPITAL FED ZONA 7,Capital Federal,-34.6454294,-58.5294627
JISA S.A. - Libertad Resistencia,RUTA NACIONAL 16 - KM 14.5,RESISTENCIA,Chaco,-27.4129295,-58.9703178
CORS EL BOULEVARD - 158722,BVD.AVELLANEDA 1698,ROSARIO,Santa Fe,-32.9497200,-60.6821200
CORS ALVEAR - 158724,AV. LIBERTADOR 2589,CAPITAL FED ZONA 3,Capital Federal,-34.5786070,-58.4063620
DT3 COMBUSTIBLES - FREYRE,AV. FREYRE 2300,SANTA FE,Santa Fe,-31.6461754,-60.7182026
CORS OVIDIO LAGOS - 158730,CORDOBA 2790,ROSARIO,Santa Fe,-32.9420950,-60.6611960
FENIX ENERGIA  - (EX  CORS PANAM. 158736),PARANA 3944 ESQ. BLAS PARERA,OLIVOS - GBA,Buenos Aires,-34.5100577,-58.5243862
CORS MITRE - 158738 - Quilmes,AV. GRAL. MITRE 880/92 ESQ. BRANDS,QUILMES - GBA,Buenos Aires,-34.7253350,-58.2510390
SERVICIOS ECHEVERRIA - SUC 158740,CAMINO DE CINTURA Y CALLE OLIMPO,9 DE ABRIL - GBA,Buenos Aires,-34.7421210,-58.4954480
CORS ROSARIO SUR - 158744,BVRD. ORONO 6190 ESQ. BATLLE,ROSARIO,Santa Fe,-33.0090570,-60.6651840
LUBRICANTES Y COMBUSTIBLES DATRI SRL - CODO PACHECO,RUTA 197 Y MOZARD,GRAL PACHECO - GBA,Buenos Aires,-34.4572057,-58.6282754
SOMOS ENERGIA - 158748,MOR. PABLO CABRERA 1807  VILLA CAB,CORDOBA RADIO CIUDAD,Córdoba,-31.3905920,-64.2038220
CORS LAS HERAS - 158752,LAS HERAS 2499,CAPITAL FED ZONA 3,Capital Federal,-34.5860670,-58.3986570
CORS OLIVOS - 158754,"AV. DEL LIBERTADOR, 2376",OLIVOS - GBA,Buenos Aires,-34.5085182,-58.4794429
ENERGY CLEAN SA - Ex SantaMarina,AV. SANTAMARINA 699,TANDIL,Buenos Aires,-37.3231120,-59.1311650
CORS LAFERRERE - 158760,ROJO ESQ.ESTANISLAO DEL CAMPO,LAFERRERE - GBA,Buenos Aires,-34.7487430,-58.5815760
SALINAS CHICO SA (Jara),AV. JUAN B. JUSTO 6065,MAR DEL PLATA,Buenos Aires,-37.9997420,-57.5962970
CODO GALVEZ   JOSE HERMANOS,BVRD GALVEZ 1599,SANTA FE,Santa Fe,-31.6381836,-60.6922531
CORS LA CARMELA - 158781,RUTA NACIONAL 9 Y CORONEL LARRABU,CAMPANA - GBA,Buenos Aires,-34.1913468,-58.9452205
CORS ZARATE - 158783,19 DE MARZO E ITUZAINGO,ZARATE - GBA,Buenos Aires,-34.0967890,-59.0226770
DUNCUE SRL - DON TORCUATO,RUTA 202 ESQ. JUAN DE GARAY,DON TORCUATO - GBA,Buenos Aires,-34.4865631,-58.6173412
CORS RIVADAVIA - 158793,AV. RIVADAVIA 975,CAMPANA - GBA,Buenos Aires,-34.1746940,-58.9601180
CORS PILAR - 158799,RUTA 8 KM 50 ESQ. ACCESO A DERQUI,PILAR - GBA,Buenos Aires,-34.4503937,-58.8705807
SALINAS CHICO SA (Moreno),MORENO 3151 ESQUINA CATAMARCA,MAR DEL PLATA,Buenos Aires,-37.9991189,-57.5539189
JISA S.A. - Resistencia,25 DE MAYO 201 ESQ. VEDIA,RESISTENCIA,Chaco,-27.4495888,-58.9885998
CORS BOMPLAND - 158809,CORDOBA 5653/99 ESQUINA BOMPLAND,CAPITAL FED ZONA 4,Capital Federal,-34.5867410,-58.4410150
SALINAS CHICO SA (Colon),COLON 5002,MAR DEL PLATA,Buenos Aires,-37.9913056,-57.5747222
CORS GUTIERREZ - 158813,RUTA 36 KM. 34,BERAZATEGUI - GBA,Buenos Aires,-34.8404950,-58.1879010
CORS EL ARCO - 158819,A. SABATTINI 4720,CORDOBA RADIO CIUDAD,Córdoba,-31.4393150,-64.1282390
CORS CENTENERA - 158821,CRUZ 1501,CAPITAL FED ZONA 2,Capital Federal,-34.6479210,-58.4288550
TECNOLOGÍA D'ATRI SRL,AV. BRASIL 2984,CAPITAL FEDERAL,Capital Federal,-34.6337880,-58.4057860
VESCIA ERNESTO,RUTA NAC. 38 Y M.   VILLANUEVA,CHAMICAL,La Rioja,-30.3514280,-66.3123220
NTI 2019 - ZAMAR,"RUTA PROV. 11 KM 891,5",LAS TOSCAS,Santa Fe,-28.3502010,-59.2642660
CHIQUI GARCIA SRL,AV SAN LORENZO 1049,CONCORDIA,Entre Rios,-31.3815610,-58.0370360
BORTOLON Y URQUIZA  Freyre,RUTA 158 Y ACCESO A FREYRE,FREYRE,Córdoba,-31.1766185,-62.1031294
NTI 2017 - ORLANDO Y HERALDO SCHULZ (VILLA 2-13),RUTA PROV. 3 Y REP. DE ALEMANIA,VILLA DOS TRECE,Formosa,-26.1894310,-59.3585870
PROCOSUD SOCIEDAD ANONIMA,"RUTA 226 KM 7,5",MAR DEL PLATA,Buenos Aires,-37.9395964,-57.6571469
POSTA DEL MERCOSUR, RUTA NAC 158 Y RUTA N 6 S/N,DALMACIO VELEZ SARSFIELD,Córdoba,-32.6072890,-63.5764060
ESSA SRL,MARCHINI Y RUTA NACIONAL 12,NOGOYA,Entre Rios,-32.3822220,-59.7902780
MONTE VERA DE LOPEZ RICARDO SUCESION 194549,SAN MARTIN 5951 (RUTA PROV. 2),MONTEVERA,Santa Fe,-31.5163994,-60.6813526
MAVAL SA,AV. MUZZIO Y FTE. SAN JOSE 429,PUERTO MADRYN,Chubut,-42.7667330,-65.0468540
GNC CICALV SRL,BLAS PARERA 1276,CASTELAR - GBA,Buenos Aires,-34.6733180,-58.6640700
TRANSFENOR SRL ,RUTA NAC.11 KM. 787 Y RUTA PROV.98,RECONQUISTA,Santa Fe,-29.1608280,-59.6579290
ROMA COMBUSTIBLES SA,ALEM E ITURBIDE,VENADO TUERTO,Santa Fe,-33.7601810,-61.9575060
CENTENARIO SA,CENTENARIO Y RIOBAMBA,SAN LUIS,San Luis,-33.2782400,-66.3177100
RUTA 36 S.R.L. SUCESOR DE 204223,AV VELEZ SARSFIELD 5030,CORDOBA,Córdoba,-31.4740460,-64.2031260
RAFITA SA,TARIGO 1109,ROQUE PEREZ,Buenos Aires,-35.4026220,-59.3353220
ALLI VAMOS José C Paz,HIPOLITO YRIGOYEN 696 RUTA PROV. 24,JOSE C PAZ - GBA,Buenos Aires,-34.5135870,-58.7402060
NUEVOS EMPRENDIMIENTOS SRL,AV EVA PERON 4350,CAPITAL FEDERAL,Capital Federal,-34.6532350,-58.4734400
PONCE JOSE MARIA - Aeropuerto,MUÑIZ Y RUTA 158,LAS HIGUERAS,Córdoba,-33.0927980,-64.3072510
EL PUERTO COMBUSTIBLES SA,27 DE FEBRERO Y MENDOZA,SANTA FE,Santa Fe,-31.6496370,-60.7040170
SERV GEN DEHEZA SA,BUENOS AIRES 720,GENERAL DEHEZA,Córdoba,-32.7588390,-63.7978860
NTI 2016 - ECHANDI LUIS EDUARDO,RUTA 11 Y B.MITRE 0,GENERAL LAVALLE,Buenos Aires,-36.4299300,-56.9163900
NTI 2016 - VALLE DEL ZENTA,PELLEGRINI Y GUEMES,SAN RAMON DE LA NUEVA ORAN,Salta,-23.1318210,-64.3225000
NTI 2013 - GNC FERRARI SRL,AV. CALLE REAL 464 ESQ. ARIS. DEL VALLE,MERLO  - GBA,Buenos Aires,-34.6758000,-58.7165030
NTI 2013 - JYF SRL  Yrigoyen y Cordoba Catamarca,YRIGOYEN ESQ CORDOBA,CATAMARCA,Catamarca,-28.4851345,-65.7780209
NTI 2013 - ENCUENTRO GNC SRL,BAIGORRIA 1300,CORDOBA,Córdoba,-31.4452840,-64.2120020
NTI 2013 - Full Petrol - La Argentina,Av 6 de julio 1358,CAMPANA - GBA,Buenos Aires,-34.1833040,-58.9426270
NTI 2013 - ORTIZ RAMON AGUSTIN,JUAN ROMERO ESQ. RUTA 5,SAN LUIS DEL PALMAR,Corrientes,-27.5157080,-58.5654370
NTI 2014 - Bonadio - Mansue S.A.,COLECTORA 12 DE OCTUBRE Y CHACABUCO,PILAR - GBA,Buenos Aires,-34.4416333,-58.8571417
"NTI 2013 - Umpy srl - Valleviejo, Catamarca",RUTA 38 Y CIRCUNVALACION,SAN ISIDRO (VALLE VIEJO),Catamarca,-28.4704360,-65.6934570
NTI 2013 - BAX S A,DON BOSCO 2285/89,MORON - GBA,Buenos Aires,-34.6621690,-58.5964860
NTI 2013 - CORGAS Guiñazu,"AV JUAN B JUSTO MANO AL NORTE, ESQ NTRA SRA DE LOS MILAGROS",CORDOBA - BARRIO GUIÑAZU,Córdoba,-31.3129050,-64.1756770
NTI 2013 - Lubricom Formosa,ESPAÑA 495,FORMOSA,Formosa,-26.1822720,-58.1700650
NTI 2017 - LATSER,AV SAN MARTIN,PERICO,Jujuy,-24.3778300,-65.1225900
NTI 2013 - Cocemar Srl,AV. FACUNDO ZUBIRIA 4517 ESQ. CALLE PEDRO FERRE.,SANTA FE,Santa Fe,-31.6251230,-60.7055800
NTI 2013 - Berardi - Servicios Benavidez,RUTA 27 Y PANAMERICANA (A 3 CUADRAS),BENAVIDEZ - GBA,Buenos Aires,-34.4086111,-58.7255556
NTI 2014 - Diquegas – Los Olivos Gas,CALLE 122 N°716 ENTRE CALLES 46 Y 47,ENSENADA - GBA,Buenos Aires,-34.8984056,-57.9384750
NTI 2013 - Orbilex Sa,AV LAS MALVINAS 2145,CORDOBA,Córdoba,-31.3908583,-64.1437889
NTI 2013 - Benzin,AV ARMADA ARGENTINA 787,CORDOBA,Córdoba,-31.4581972,-64.2112550
NTI 2013 - Dufau Hnos Dos,"COLECTORA DE LA RUTA 3 KM 36,4",VIRREY DEL PINO - GBA,Buenos Aires,-34.8213220,-58.6416660
NTI 2014 - LOS QUIMBALETES GNC SRL,RUTA NACIONAL 38 - KM 63.5,VILLA GIARDINO,Córdoba,-31.0320610,-64.5042940
NTI 2013 - Combustible Barrancas ( Laboranti II),AUTOPISTA SANTA FE ACCESO BARRANCAS,BARRANCAS,Santa Fe,-32.2316100,-60.9915330
NTI 2014 - Villa Constitución – Gascom,AV PRESIDENTE PERON Y PRESBITERO SEGUNDO,VILLA CONSTITUCION,Santa Fe,-33.2375194,-60.3301722
NTI 2014 - Sinercom ,GENERAL PAZ 7500,SANTA FE (BARRIO GUADALUPE),Santa Fe,-31.6031287,-60.6744550
NTI 2014 - GNC Merlo Norte,IRIGOYEN Y SAN JUAN,MERLO  - GBA,Buenos Aires,-34.6588667,-58.7255250
NTI 2013 - Lanzoni Rossi San Andres de Giles,"RUTA 7 KM 101,8",SAN ANDRES DE GILES,Buenos Aires,-34.4550000,-59.4389750
NTI 2013 - Elisei - Junin,RUTA NAC 7 Y DR. BENITO DE MIGUEL,JUNIN,Buenos Aires,-34.6039890,-60.9650110
NTI 2014 - GAS FE ,HIPOLITO YRIGOYEN 5731 (RUTA 197) ESQ. SAAVEDRA LAMAS,JOSE C PAZ - GBA,Buenos Aires,-34.5375050,-58.7929050
NTI 2016 - C Y W COMBUSTIBLES SRL,RUTA NACIONAL 81,LAS LOMITAS,Formosa,-24.6994000,-60.5938800
PINAMOTOS SRL,AV. BUNGE E INTERMEDANOS,PINAMAR,Buenos Aires,-37.1094444,-56.8777778
NTI 2015 - GONZALEZ JOSE ROBERTO (RIVADAVIA),RUTA NAC. 226 Y RIVADAVIA,OLAVARRIA,Buenos Aires,-36.8783340,-60.3032890
NTI 2014 - ALT - Alta Gracia,RUTA 5 Y CALLE 14,ALTA GRACIA,Córdoba,-31.6683550,-64.4102490
NTI 2014 - Alt Omega,LUCIO V.ROSSI Nº41 ESQ.RUTA PROV 45,ALTA GRACIA,Córdoba,-31.6452420,-64.4334290
NTI 2014 - MATTEAZZI OYHENART CLAUDIA ROSANA,RUTA NACIONAL 152 - KM 28,GRAL. ACHA,La Pampa,-37.3662370,-64.6003340
NTI 2014 - Gonzalez Jose Roberto,AV.AVELLANEDA Y URQUIZA 970,OLAVARRIA,Buenos Aires,-36.9143500,-60.3272460
NTI 2014 - BACIK JORGE Y PADUA JORGE,EVA PERON  N° 6205,MERLO (LIBERTAD) - GBA,Buenos Aires,-34.7047361,-58.7052889
NTI 2016 - GNC SAN MIGUEL SRL,PRESIDENTE PERON 2538,SAN MIGUEL - GBA,Buenos Aires,-34.5343530,-58.7224700
NTI 2015 - LABANDOCZKA SILVIA MARIANA,PADRE L SARLEY 0,COLONIA 25 DE MAYO,Misiones,-27.3687300,-54.7521600
NTI 2014 - F.O.D.A. S.R.L.,"RUTA NACIONAL 118 KM 64,5",SANTA ROSA,Corrientes,-28.2604410,-58.1119960
NTI 2014 - EXFACO PASO DEL REY,INT. GNECCO ESQ QUILMES,PASO DEL REY - GBA,Buenos Aires,-34.6287250,-58.7438306
NTI 2014 - PETRO ITATI,AV.CENTENARIO 5042,CORRIENTES,Corrientes,-27.4768900,-58.7896200
"NTI 2015 - SBARBATI, FELICE Y MAGNO",AV. AVELLANEDA Y NUMA AYRINHAC,PIGÜE,Buenos Aires,-37.5981401,-62.4091315
NTI 2014 - 7 y 511 S.A (Ringuelet),CALLE 7 Y 511,LA PLATA,Buenos Aires,-34.8831860,-57.9926440
NTI 2014 - COREY,AV. HIPOLITO YRIGOYEN 18501,LONGCHAMPS - GBA,Buenos Aires,-34.8625300,-58.3897800
NTI 2015 - MANILA SRL,RUTA N°3 ENTRE SAAVEDRA Y LOPEZ,PIRANE,Formosa,-25.7410300,-59.1012200
NTI 2014 - COSTACOM SA,"RUTA NAC. 11 KM. 327,6",MAR DEL TUYU,Buenos Aires,-36.5611639,-56.7166667
NTI 2014 - MANSUE S.A.,ALVEAR 2080,VILLA BALLESTER - GBA,Buenos Aires,-34.5451450,-58.5487060
NTI 2014 - OESTE GNC S.A,AV. GAONA 4192,CIUDADELA - GBA,Buenos Aires,-34.6350240,-58.5448260
NTI 2015 - GENEPLUS SRL,EVA PERON 3302,TEMPERLEY - GBA,Buenos Aires,-34.7596140,-58.3585110
NTI 2015 - COMBUSTIBLES SERRANOS S.A. (ESPAÑA),AV. ESPAÑA 643,LA FALDA,Córdoba,-31.1005750,-64.4829340
GNC MERLO OIL SRL ,EMILIO ZOLA 21,MERLO  - GBA,Buenos Aires,-34.6693180,-58.7454000
NTI 2017 - MIG MAR VIDAL S.A.,SAN MARTIN 299,CORONEL VIDAL,Buenos Aires,-37.4484682,-57.7295959
NTI 2015 - DALMASSO PATRICIA LORENA,PELLEGRINI 705,PIRANE,Formosa,-25.7402200,-59.1083600
ATREU-CO COOPERATIVA AGROPECUARIA,RUTA 1 ACCESO SUR,MACACHIN,La Pampa,-37.1525000,-63.6663890
NTI 2016 - YAPAI SRL - PIEDRITAS,"RUTA 33 KM. 464,8",PIEDRITAS,Buenos Aires,-34.7805400,-63.0013000
NTI 2015 - CMF SA,CALLE 7 Y 85,LA PLATA,Buenos Aires,-34.9408528,-57.9143466
NTI 2015 - ORTFRE  SRL,RIVADAVIA AV. 10301,CAPITAL FEDERAL,Capital Federal,-34.6387300,-58.5087400
NTI 2016 - SERVICIOS LER,CAMINO DE LA VIRGEN MARIA ( EX AV. DE LA COOPERACION) Y AV. LOS NOGALES,TAPIALES - GBA,Buenos Aires,-34.7090050,-58.5045670
NTI 2015 - CEPIA SOCIEDAD ANONIMA,REPUBLICA ARGENTINA 3205,CLAYPOLE - GBA,Buenos Aires,-34.8156860,-58.3659860
NTI 2015 - ESTACION RUTA 1422 S.R.L,AV.GRAL LEMOS (RUTA 202 Y LOS EUCALIPTOS),VILLA DE MAYO - GBA,Buenos Aires,-34.5246210,-58.6812890
NTI 2015 - SEFAC PEHUAJO S A,ACCESO GUEMES 410 ESQ.M.CORONADO,PEHUAJO,Buenos Aires,-35.8161760,-61.9102140
NTI 2019 - ALT (rotonda),RUTA C45 Y GUEMES (ROTONDA),ALTA GRACIA,Córdoba,-31.6355632,-64.4345139
NTI 2015 - TEXA PETROL SA,AV. EVA PERON (EX PIERRESTEGUI) 4100,MORON - GBA,Buenos Aires,-34.6928970,-58.6371020
NTI 2015 - GNC CICALV S.R.L. (ITUZAINGO),AV. RIVADAVIA 23190 ESQUINA PINTOS,ITUZAINGO - GBA,Buenos Aires,-34.6644700,-58.6870400
NTI 2015 - LA RUTA,RUTA N°12 KM 1028 ,CORRIENTES,Corrientes,-27.5052080,-58.7742860
NTI 2015 - GNC FERRARI SRL (BALBIN),RICARDO BALBIN 7520,MERLO  - GBA,Buenos Aires,-34.7043940,-58.7775890
NTI 2015 - LA BARRANCA S.R.L.,TIERRAS DEL FUEGO 2019 Y RUTA A005,RIO CUARTO,Córdoba,-33.0921600,-64.3538700
NTI 2015 - 72 GAS SA,CALLE 72 N° 780,LA PLATA,Buenos Aires,-34.9347540,-57.9309190
NTI 2016 - LMG FULL SERVICE SA,AV MITRE Y GUEMES,BERISSO - GBA,Buenos Aires,-34.8874130,-57.8692270
NTI 2016 - SCHOLLES OMAR ALBERTO,RUTA PROV 13 Y NESTOR KIRCHNER,SAN VICENTE,Misiones,-27.0106594,-54.4690083
NTI 2015 - ALCOR SERVICE SA,AMANCIO ALCORTA 500,BOULOGNE - GBA,Buenos Aires,-34.5218300,-58.5632400
NTI 2015 - WINE GAS SOCIEDAD ANONIMA,RUTA NACIONAL 40 Y RUTA PROV N° 34,GENERAL LAVALLE,Mendoza,-32.7168300,-68.6792900
NTI 2015 - EL YACARE,RUTA NAC. N° 14 KM 600,ALVEAR,Corrientes,-29.0860900,-56.5608300
NTI 2017 - ENERTRAC,JUAN B JUSTO 5225,CÓRDOBA,Córdoba,-31.3617669,-64.1765290
NTI 2015 - COMBUSTIBLES ALTERNATIVOS SA,LARRALDE 3186 Y RUTA 197,TALAR DE PACHECO - GBA,Buenos Aires,-34.4451200,-58.5975300
NTI 2016 - LAS LOMAS S.R.L.,RUTA NAC 9 Y PCIAL 66 0,SAN SALVADOR DE JUJUY,Jujuy,-24.2177400,-65.2781800
NTI 2017 - GRUPO LV,RUTA NAC. N° 12 Y AV. 147,POSADAS,Misiones,-27.3995140,-55.9512880
NTI 2016 - RIVARA,"RUTA NACIONAL 5, KM. 190.5",ALBERTI,Buenos Aires,-35.0568640,-60.2711880
NTI 2016 - LIMA MARIA ELENA (YACARE II),AV ARTURO FRONDIZI 2501,PASO DE LOS LIBRES,Corrientes,-29.7177500,-57.1065400
NTI 2016 -  AG GAN SRL,AV.URUGUAY Y AV.KENNEDY,VILLA ANGELA,Chaco,-27.5736390,-60.7227010
NTI 2016 - EL RINCON DE PIEDRA DEL AGUILA SRL,INDEPENDENCIA 710,NEUQUEN,Neuquen,-38.9549180,-68.0490700
NTI 2016 - ECONOMIC FUEL SRL,BVARD CONCORDIA 885,SAN SALVADOR,Entre Rios,-31.6170031,-58.4975046
NTI 2016 - GNC DEL CARMEN,RUTA 3 KM 67.200,CAÑUELAS - GBA,Buenos Aires,-35.0612480,-58.7357600
NTI 2016 - AGROCOMB (Mercado Central),CIRCUNVALACION Y CALLE DE RIEGO (MERCADO CENTRAL),TAPIALES - GBA,Buenos Aires,-34.7065870,-58.4962450
NTI 2016 - AMBROSETTO SANDRA RAQUEL,RUTA NACIONAL 251 119,GENERAL CONESA,Rio Negro,-40.1039400,-64.4735100
NTI 2016 - ESA 2000 SA,"SARMIENTO 338 (RUTA 205 KM 40,3)",TRISTAN SUAREZ - GBA,Buenos Aires,-34.8922500,-58.5702100
NTI 2016 - GILBAR COMBUSTIBLES SA,HIPOLITO YRIGOYEN 29213,ALEJANDRO KORN - GBA,Buenos Aires,-34.9728340,-58.3819220
NTI 2016 - URQUIZA COMBUSTIBLES S.A.,AMEGHINO 799,PERGAMINO,Buenos Aires,-33.8807600,-60.5757300
NTI 2016 - GAS LH,AV 66 ESQUINA 143,LA PLATA,Buenos Aires,-34.9602790,-57.9721830
NTI 2016 - CAVIRAMA S.R.L.,AV. WOLMMAN Y RN 34,GRAL SAN MARTIN,Jujuy,-23.8256900,-64.7996830
NTI 2016 - JOSE AFID SCHAMUN SRL (LAVALLE),RN 157 KM 1094,LAVALLE,Santiago del Estero,-28.1927050,-65.1002680
NTI 2016 - GNC DEL VISO,ARTURO UMBERTO ILLIA  KM 44.300 ESQ. GRAL.VIAMONTE,DEL VISO - GBA,Buenos Aires,-34.4558850,-58.8167840
TREMEN SRL,AV. SAN MARTIN 647,BARILOCHE,Rio Negro,-41.1328850,-71.3182800
NTI 2017 - LOMFAKO,RUTA NACIONAL N° 14  KM 46.5,GUALEGUAYCHU,Entre Rios,-33.1161940,-58.6497550
NTI 2016 - GUSTAVO JULIAN Y MIGUEL A. ZUAIN SH,RN 22 KM 999,CHOELE CHOEL,Rio Negro,-39.2712100,-65.6706600
NTI 2016 - COMBUSTIBLES LITORAL S.A.,RUTA NACIONAL N°14 KM 83,GUALEGUAYCHU,Entre Rios,-32.8083000,-58.5230000
NTI 2017 - GRIS S.A.,CARRIL SARMIENTO 1865 ,GODOY CRUZ,Mendoza,-32.9421100,-68.8256000
NTI 2017 - FASENA ENERGÍA SA,AV SABATINI 5815,CÓRDOBA,Córdoba,-31.4616760,-64.1061700
NTI 2017 - LA LOMA DE MATHEU SA,AV SARMIENTO (RN 25 KM 25) ESQUINA SAN ALEJANDRO,MATHEU - GBA,Buenos Aires,-34.3754000,-58.8155400
NTI 2017 - SERVIQUIL SRL,AV. MOSCONI Y TRIUNVIRATO 2700,QUILMES - GBA,Buenos Aires,-34.7530220,-58.2896010
NTI 2017 - COMBUSTIBLES DEL OESTE SA (sucesor de Perri combustibles),AVENIDA DON BOSCO 2805,MORON - GBA,Buenos Aires,-34.6660267,-58.6007323
NTI 2017 - LAND OIL,RUTA 234 Y HUELLEITUE ,JUNIN DE LOS ANDRES,Neuquen,-39.9331500,-71.0684900
NTI 2017 - ABELAR SERVICIOS S.R.L.,"RUTA 7, KM 953",LAS CATITAS,Mendoza,-33.2995370,-68.0207456
NTI 2017 - PETROCOC S.R.L.,EVA PERON 5303,ROSARIO,Santa Fe,-32.9362315,-60.6961395
NTI 2017 - COMBELPA SRL,AV CAP. CLAUDIO ROSALES,EL PALOMAR - GBA,Buenos Aires,-34.6203468,-58.5982144
NTI 2017 - PULQUI PUNTANO S.A.,EVA PERON Y FUERZA AEREA ARGENTINA,SAN LUIS,San Luis,-33.2841323,-66.3434689
NTI 2017 - DEL VALLE COMUNICACIONES,Av Güemes 1275,CATAMARCA,Catamarca,-28.4757756,-65.7687624
NTI 2018 - LFS Combustibles  S.A.,PANAMERICANA Y 202,DON TORCUATO - GBA,Buenos Aires,-34.4850074,-58.6135126
NTI 2017 - ORO NEGRO,AV. DON BOSCO Y BLAS PARERA,PARANA,Entre Rios,-31.7365267,-60.4930532
NTI 2018 - GIANESE EDUARDO DANIEL - SANTA ROSA,SANTA ROSA 1885,CASTELAR - GBA,Buenos Aires,-34.6390390,-58.6556848
NTI 2017 - LAND OIL S.R.L. (San Martin),SAN MARTIN 4216,NEUQUEN,Neuquen,-38.9546788,-68.1178045
NTI 2017 - PETROTRES LA HUELLA,RUTA NAC 3 Y GRAL. SAN MARTIN,TRES ARROYOS,Buenos Aires,-38.3650327,-60.2913238
NTI 2017 - PETROISLAND S.A.,AV ANDRES ROLON 1002,SAN ISIDRO  - GBA,Buenos Aires,-34.4734910,-58.5345119
NTI 2018 - PARQUE AYERZA SCA,SARMIENTO 2003,CASTELAR - GBA,Buenos Aires,-34.6463240,-58.6361570
NTI 2017 - MELIPAL S.A UTN,SAN NICOLAS DE BARI ESQ. PORTEZUE,LA RIOJA,La Rioja,-29.4105794,-66.8325242
NTI 2018 - DEL VALLE GNC SRL,ITUZAINGO 42,SAN LUIS,San Luis,-33.3090780,-66.3274730
NTI 2017 - POTENXA S.R.L.,JOSE LEON LARRE 806,GONZALEZ CATAN - GBA,Buenos Aires,-34.7716399,-58.6496882
NTI 2017 - LOS QUIMBALETES GNC SRL,RN 38 ESQ. EMPALME TANTI,VILLA DEL LAGO,Córdoba,-31.3698960,-64.5118370
NTI 2018 - JACOB MIGUEL ANGEL,PTE PERON 141,BOVRIL,Entre Rios,-31.3411355,-59.4479179
NTI 2018 - La Cuarta S.A.,AV. PERÓN (RUTA NC. 9) Y SANTA FÉ,RIO SEGUNDO,Córdoba,-31.6496890,-63.9033420
NTI 2018 - TODO SERVICIOS S.R.L.,LOS OLMOS 727,FUNES,Santa Fe,-32.9232922,-60.8001240
NTI 2018 - LUBRICANTES SAN LORENZO Bv. URQUIZA,BV URQUIZA ESQ MANDOLINI,SAN LORENZO,Santa Fe,-32.7472981,-60.7556505
NTI 2018 - FS OCTANO SRL (Limache),EX COMBATIENTES DE MALVINAS Y ROTONDA LIMACHE,SALTA,Salta,-24.8312800,-65.4307700
NTI 2018 - La Regional Combustibles S.A. ,PADRE KREDER 2544,ESPERANZA,Santa Fe,-31.4401520,-60.9383350
ESQUINA KAIKEN S.A. SUCESOR DE 158250 - 229287,AV.MASSEY Y AMEGHINO,LINCOLN,Buenos Aires,-34.8693500,-61.5314710
NTI 2018 - SERVICIOS LUARCA S.A.,RUTA 25 Y DON BOSCO,MORENO - GBA,Buenos Aires,-34.6052620,-58.8194540
FS 2018 - DE LA VEGA ABELARDO,RIVADAVIA Y FEDERICI,RAWSON,Chubut,-43.2978260,-65.1045070
FS 2018 - DE LA VEGA ABELARDO,M.GUEMES Y J.MURGA,RAWSON,Chubut,-43.2956530,-65.0924360
FS 2018 - DE LA VEGA ABELARDO,MARIA EVA DUARTE 949,RAWSON,Chubut,-43.3081988,-65.0512807
FS 2018 - AGUSFED SA,RUTA 3 KM 1453,TRELEW,Chubut,-43.2878160,-65.2652000
FS 2018 - CV S.R.L.,RUTA NAC. 259 Y J. LEZAMA,ESQUEL,Chubut,-42.9067010,-71.2883860
FS 2018 - CYL S.R.L.,HIPOLITO IRIGOYEN Y JUAN B.JUSTO,COMODORO RIVADAVIA,Chubut,-45.8759110,-67.5019000
FS 2018 - ALMA SOCIEDAD ANONIMA,AV.DE LOS MINEROS Y J.A.ROCA,RIO TURBIO,Santa Cruz,-51.5390140,-72.3387640
FS 2018 - DIMSUR S.R.L.,RUTA NAC.3 Y CASTELLI,RIO GALLEGOS,Santa Cruz,-51.6262240,-69.2478190
FS 2018 - EGESUR S.A.,MARCELINO ALVAREZ Y POSADAS,RIO GALLEGOS,Santa Cruz,-51.6283058,-69.2010868
FS 2018 - ZONA CERO S.A.,RIVADAVIA 38,COMODORO RIVADAVIA,Chubut,-45.8618690,-67.4746460
FS 2018 - VALLE 16 DE OCTUBRE SRL,AV.PATAGONIA Y RHIS THOMAS ,TREVELIN,Chubut,-43.0733150,-71.4603590
FS 2018 - TRES GLACIARES SRL,AV.DEL LIBERTADOR Y GUILLERMO EIKE,EL CALAFATE,Santa Cruz,-50.3387780,-72.2772010
FS 2018 - EL CAMARUCO S.R.L..,AV. RIVADAVIA Y ALVEAR,COMODORO RIVADAVIA,Chubut,-45.8625631,-67.4970173
FS 2018 - TORO PATRICIA VERONICA,AV.ESTRADA Y ROCA,SARMIENTO,Chubut,-45.5903550,-69.0713140
FS 2018 - ESTACION DE SERVICIO DEL CENTRO SRL,RIVADAVIA E IRIGOYEN,PICO TRUNCADO,Santa Cruz,-46.7987050,-67.9600830
FS 2018 - EL TEHUELCHE S.R.L.,AV. RIVADAVIA 2750,COMODORO RIVADAVIA,Chubut,-45.8621310,-67.5163170
FS 2018 - EL TEHUELCHE S.R.L.,AV. KENNEDY E ISLAS LEONES,COMODORO RIVADAVIA,Chubut,-45.8623800,-67.5166550
FS 2018 - VERTAS S.A.,NUEVO TRAZADO DE LA RUTA N°3,CALETA OLIVIA,Santa Cruz,-46.4611270,-67.5164490
G&C SRL (Sucesión El Tehuelche SRL),RUTA PCIAL.N°20 Y AV.REGIMIENTO DE INFANTERIA N°25,SARMIENTO,Chubut,-45.5995376,-69.0690744
FS 2018 - VERTAS S.A.,SAN MARTIN 590,CALETA OLIVIA,Santa Cruz,-46.4415700,-67.5172500
"FS 2018 - SANDIN HECTOR, SANDIN FABIOLA Y SAN",RUTA PROV.52 Y CAMINO A AEROPUERTO,PERITO MORENO,Santa Cruz,-46.5828290,-70.9282127
FS 2018 - RAPISUR S.A.,PERITO MORENO Y MARIANO MORENO,RIO GALLEGOS,Santa Cruz,-51.6188993,-69.2325928
FS 2018 - FEDE S.R.L.,SAN MARTIN 1312 ESQ. ENTRE RIOS,TRELEW,Chubut,-43.2581280,-65.3235660
FS 2018 - MASTER OIL S.A.,SAN MARTIN Y PUEYRREDON,PUERTO DESEADO,Santa Cruz,-47.7502230,-65.9031660
FS 2018 - MORONI Y TORRES S.H.,CENTENARIO Y SOB. NACION.,TRELEW,Chubut,-43.2567940,-65.3019930
FS 2018 - MORONI Y TORRES S.H.,AV GRAL ROCA Y VILLARINO,PUERTO MADRYN,Chubut,-42.7765770,-65.0265940
FS 2018 - MACRA S.R.L.,PERITO MORENO 260,LAS HERAS,Santa Cruz,-46.5396590,-68.9304950
"FS 2018 - GOICOECHEA JORGE M., JORGE I Y",RUTA 3 Y ACCESO AEROPUER.,COMODORO RIVADAVIA,Chubut,-45.7934020,-67.4919190
FS 2018 - LA URBANA S.R.L..,KENNEDY 3398,COMODORO RIVADAVIA,Chubut,-45.8820930,-67.5405040
FS 2018 - LANA ERNESTO JOSE,RUTA 3 KM 1470 (PROVINCIAL N°25),TRELEW,Chubut,-43.2823990,-65.2640000
FS 2018 - COMBUSTIBLES PATAGONICOS S.A.,HIPOLITO YRIGOYEN (RUTA 3 KM. 1848) 5353,COMODORO RIVADAVIA,Chubut,-45.9012485,-67.5557364
NTI 2018 - ROCCA SUR SRL/NTI Dina Huapi ,"LOS NOSTROS 277 RUTA NAC. 40 KM 2053,69",PILCANIYEN - DINA HUAPI,Rio Negro,-41.0711990,-71.1686110
NTI 2018 - ARBIZU-PAGELLA SRL,"RUTA NACIONAL 3 KM 810,5",PRADERE,Buenos Aires,-39.5368395,-62.6796680
NTI 2018 - DIONE,"RUTA 3 SUR KM 2,5",SAN LUIS,San Luis,-33.3334000,-66.3205000
NTI 2018 - Busema Luz Maria y Ballesteros Mario Juan SH,DR MARCOS PAZ 1222,MARCOS PAZ - GBA,Buenos Aires,-34.7771693,-58.8284083
NTI 2018 - FULL PETROL (Virasoro),RUTA NACIONAL 14 KM 747,VISARORO,Corrientes,-28.0514030,-56.0132480
NTI 2018 - MAXFA SA,ISIDORO BUSQUETS 650 ,JUNIN,Mendoza,-33.0990231,-68.4785435
NTI 2018 - BENZIN S.R.L., AV. O’HIGGINS 5375 ,CÓRDOBA,Córdoba,-31.4745660,-64.1684040
NTI 2018 - Del Sordo Donata Rinaldi,VERGARA 3036,HURLINGHAM - GBA,Buenos Aires,-34.6059400,-58.6353600
NTI 2019 - LA ROTONDA SRL,AV. NESTOR KIRCHNER Y BLAS PARERA,FORMOSA,Formosa,-26.1872840,-58.2093220
NTI 2018 - SHANKO,RUTA NACIONAL N°9 Y RUTA PROVINCIAL Nº208,SANTIAGO DEL ESTERO,Santiago del Estero,-27.7719060,-64.3448120
NTI 2018 - CARDINAL LOS ARCOS,AV. BELGRANO 4051 ESQUINA PARAGUAY ,SANTIAGO DEL ESTERO,Santiago del Estero,-27.8244526,-64.2470709
NTI 2018 - QUICA SA,AV. CENTENARIO Y 466  ,CITYBELL,Buenos Aires,-34.8639270,-58.0466473
NTI 2018 - SERVISOL,CALLE 131 ESQ.CALLE 62,LA PLATA,Buenos Aires,-34.9459060,-57.9643550
NTI 2018 - ESTACION FIAMA SRL,RUTA NAC 197 Y EL CALLAO 0,GRAND BOURG - GBA,Buenos Aires,-34.5024028,-58.7140119
NTI 2018 - MILENIA ENERGIA,AVENIDA PAISANDU ESQUINA CRUZ DEL SUR,CORRIENTES,Corrientes,-27.4996357,-58.8254293
NTI 2018 - RUMBO SUR,CNEL MOLDES 1645,CNEL. DORREGO,Mendoza,-32.9145800,-68.8241680
NTI 2019 - D´ATRI NORDELTA,AGUSTIN M. GARCIA 9647,BENAVIDEZ - GBA,Buenos Aires,-34.3926450,-58.6631740
NTI 2019 - OLIVOS COMBUSTIBLES,PELLIZA 3892,OLIVOS - GBA,Buenos Aires,-34.5183000,-58.5142500
NTI 2020 - BEKAGRO SRL,PARCELA 03 PARTE DE LA MANZANA W PA,LA BANDA,Santiago del Estero,-27.7643590,-64.2491770
NTI 2018 - EL GUAYACAN SRL,RUTA NACIONAL 89 KM 384,QUIMILI,Santiago del Estero,-27.6570479,-62.4250014
NTI 2018 - SCHOLLES OMAR ALBERTO - CAMPO GRANDE,"RUTA NAC. 14 KM 913,5",CAMPO GRANDE,Misiones,-27.2206900,-54.9725300
SCHOLLES OMAR ALBERTO,RUTA NAC. 14 KM.1260,SAN VICENTE,Misiones,-27.0001012,-54.4944729
NTI 2018 - TOTAL GNC,CNO. CENTENARIO 785 Y CALLE 422,VILLA ELISA,Buenos Aires,-34.8553440,-58.0748670
NTI 2018 - MOSCONI SRL,AV. GRAL MOSCONI 1015,LOMAS DEL MIRADOR - GBA,Buenos Aires,-34.6631470,-58.5384520
RILEO SRL,INDEPENDENCIA 908,SANTIAGO DEL ESTERO,Santiago del Estero,-27.7959960,-64.2507450
NTI 2019 - SERVIDUAL LUJAN,"ACCESO OESTE KM 65,5",LUJAN - GBA,Buenos Aires,-34.5594540,-59.0917190
NTI 2019 - PETROLF NORTE SRL,AV. 25 DE MAYO 4060 ,RESISTENCIA,Chaco,-27.4177780,-59.0236280
NTI 2020 - PARQUE BELLA VISTA,GASPAR CAMPOS 1665,BELLA VISTA - GBA,Buenos Aires,-34.5659200,-58.7020270
NTI 2019 - SAN GUILLERMO,SANTA FE Y ANGELA DE LA CASA,SAN GUILLERMO,Santa Fe,-30.3683000,-61.9127000
NTI 2019 - GOICOCHEA,RUTA 1 KM 80,ESCALANTE,Chubut,-45.8007100,-67.4245150
NTI 2019 - GNC DEL OESTE SRL,AV. RATTI 2087,ITUZAINGO - GBA,Buenos Aires,-34.6464250,-58.6890260
NTI 2019 - ALVALL SRL (ZAPALA),BERNARDO HOUSSAY Y LIBANO,ZAPALA,Neuquen,-38.8986111,-70.0638888
NTI 2019 - CONCORD GAS SA (DELTA GNC),SAAVEDRA 64,MENDOZA,Mendoza,-32.8916080,-68.8297220
GEO LATITUD SRL - CODO PARANA,BUENOS AIRES Y CERVANTES,PARANA,Entre Rios,-31.7299530,-60.5310780
NTI 2020 - CORS AUBASA (VIA BS AS),RUTA NACIONAL 1 - AUTOPISTA DR RICARDO BALBIN - KM28 SENTIDO LA PLATA - BS AS,BERAZATEGUI - GBA,Buenos Aires,-34.7622409,-58.1785021
NTI 2020 - CORS AUBASA (VIA LA PLATA),RUTA NACIONAL 1 - AUTOPISTA DR RICARDO BALBIN - KM28 SENTIDO BS AS - LA PLATA,BERAZATEGUI - GBA,Buenos Aires,-34.7626640,-58.1792531
NTI 2019 - PIEDRA DEL AGUILA,RUTA NACIONAL 237 KM 1446,PIEDRA DEL AGUILA,Neuquen,-40.0426920,-70.0721530
NTI 2019 - EL TRIANGULO TERMINAL DE CAMIONES,RUTA 3 Y RUTA 252,BAHIA BLANCA,Buenos Aires,-38.7546730,-62.2033380
NTI 2019 - ZEBALLOS,ZEBALLOS 2188,CASTELAR - GBA,Buenos Aires,-34.6594200,-58.6355700
NTI 2019 - VICTORICA,VICTORICA 47,MORENO - GBA,Buenos Aires,-34.6481630,-58.7967260
NTI 2019 - FADEL,"RUTA NAC 14KM 150,5 Y ACCESO A COLON",COLON,Entre Rios,-32.2704500,-58.2398700
NTI 2019 - RSD EMPRENDIMIENTOS,RUTA NACIONAL 9 KM 751,COLONIA CAROYA,Córdoba,-30.9957670,-64.1024060
NTI 2019 - EL TRIANGULO ROCCA SUR SRL,PASAJE GUTIERREZ 3490,BARILOCHE,Rio Negro,-41.1601610,-71.3172170
NTI 2019 - BORDAQUEVICH,RP 2 Y ALMAFUERTE,CONCEPCIÓN DE LAS SIERRAS,Misiones,-27.9761111,-55.5231917
NTI 2019 - PETRONORTE SA (TUCUMAN),RUTA PROV 301 KM 0.201,SAN MIGUEL DE TUCUMÁN,Tucumán,-26.8356300,-65.2605100
NTI 2019 - GESAL SA,RUTA PROVINCIAL N5 Y AV. OJO DE AGUA,VILLA GENERAL BELGRANO,Córdoba,-31.9806310,-64.5515070
NTI 2019 - DEL SORDO (LUJAN),AV. CONSTITUCIÓN 1885,LUJAN - GBA,Buenos Aires,-34.5688100,-59.0951900
NTI 2017 - ADMA (Sucesión GNC DON PEDRO SRL),ACCESO ESTE Y JUAN ISIDRO MAZA LATERAL SUR,FRAY LUIS BELTRAN,Mendoza,-32.9901110,-68.6675030
NTI 2019 - COCOMAZZI,PROVINCIAS UNIDAS 2902,ROSARIO,Santa Fe,-32.9631600,-60.7119260
ALVAREZ NEUMATICOS,SARMIENTO Y R. CARRILLO,BAHIA BLANCA,Buenos Aires,-38.6855560,-62.2291670
NTI 2019 - CORS ARROYO SECO,RUTA NACIONAL 9 KM 272,ARROYO SECO,Santa Fe,-33.1341000,-60.5720000
NTI 2019 - CORS LIMA,RUTA NACIONAL 9 KM 92,ZARATE - GBA,Buenos Aires,-34.1105000,-59.1237000
NTI 2019 - PETRO ITATÍ SA (ITATI),RUTA NACIONAL 12 Y ACCESO ITATI,ITATI,Corrientes,-27.3500320,-58.2346600
NTI 2019 - PETRO ITATÍ SA (PASO DE LA PATRIA),25 DE MAYO 681,PASO DE LA PATRIA,Corrientes,-27.3161900,-58.5772620
NTI 2019 - MONTEDUAL,AVENIDA V. FAIR 1021,MONTE GRANDE - GBA,Buenos Aires,-34.8099270,-58.4918470
NTI 2020 - BERRIA ENERGIA,AV. CIRCUNVALACION Y CALLE 440,GENERAL PICO,La Pampa,-35.6426430,-63.7486510
NTI 2019 - ELI MORENO,BELISARIO ROLDAN Y MARTIN GUEMES,MORENO - GBA,Buenos Aires,-34.6340571,-58.8114738
NTI 2020 - LIDA SAS,9 DE JULIO 2170,TUCUMAN,Tucumán,-26.8601810,-65.2114310
NTI 2020 - PILMAYQUEN,PILMAYQUEN 30,BAHIA BLANCA,Buenos Aires,-38.6912006,-62.2337705
NTI 2022 - CORS BUEN AYRE,CAMINO BUEN AYRE KM 19,VILLA UDAONDO - ITUZAINGÓ,Buenos Aires,-34.6045460,-58.7088335
NTI 2020 - PIONEROS,AV. DE LOS PIONEROS Y AV. BOOCK,BARILOCHE,Rio Negro,-41.1322450,-71.3570240
NTI 2021 - EL PRADO SA,RUTA 51 KM 2,SALTA,Salta,-24.8416700,-65.4917100
COOP AGROPECUARIA DE MALABRIGO,SARMIENTO 1215,MALABRIGO,Santa Fe,-29.3511391,-59.9698734
NTI 2020 - PALOMAR,PAULA ALBARRACIN DE SARMIENTO 555 NORTE,SAN JUAN,San Juan,-31.5244000,-68.5553000
FS 2022 - TRANSFUEL OIL SRL,Ruta 1 KM 5.5,SAN JOSE DEL RINCON,SANTA FE,-31.6080000,-60.5798000
NTI 2021 - POZZO ARDIZZI SA,RUTA 3 KM 966,VIEDMA,Rio Negro,-41,-63
NTI 2020 - PETROPRINGLES,RUTA 51 Y 85 - KM 108,CORONEL PRINGLES,Buenos Aires,-38.0262000,-61.3830000
NTI 2020 - SIMBOLO,SARMIENTO 200,VILLA DOLORES,Córdoba,-31.9468870,-65.1902290
NTI 2021 - TASCO SRL,RN 34 Y URQUIZA,TARTAGAL,Salta,-22.5368000,-63.7975000
NTI 2020 - ÁNGEL DE DIOS,AV. NESTOR KIRCHNER Y PERITO MORENO,RÍO GALLEGOS,Santa Cruz,-52,-69
NTI 2021 - G-ENERGY SRL,INDEPENDENCIA (S) 3478,SANTIAGO DEL ESTERO,Santiago del Estero,-27.8225850,-64.2352940
NTI 2022 - METEÑA HNOS SA,AV GENERAL SAVIO 2801,RIO TERCERO,Córdoba,-32.1695792,-64.1594267
FS 2021 - ELI LAFERRERE,Ruta 3 y Da Vinci,LAFERRERE - GBA,Buenos Aires,-34.7491667,-58.6111111
NTI 2021 - Rio Grande (OASIS SRL),MIRKO MILOSEVIC 38,RIO GRANDE,Tierra del Fuego,-53.8093562,-67.6851182
NTI 2021 - KEOPS SA,AV. LAPRIDA Y DIAG. EVA PERON,BARRANQUERAS,Chaco,-27.4827200,-58.9368900
FS 2021 - DORNELL SA,Av. Rolon 2701,BOULOGNE - GBA,Buenos Aires,-34.5155556,-58.5683333
FS 2022 - ELI GNECCO,INTENDENTE GNECCO 1258,PASO DEL REY - GBA,Buenos Aires,-34.6318000,-58.7404000
FS 2022 - COMBUSTIBLES DEL OESTE SRL,LAMBARE 1103 ESQUINA JP BERGAMINI,HAEDO - GBA,Buenos Aires,-34.6317350,-58.5808561
NTI 2022 - BOSQUES GAS SA,RUTA PROVINCIAL 36 Y AV. BOSQUES,BOSQUES,Buenos Aires,-34.8113600,-58.2301500
NTI 2022 - EXFACO CAMINO DE LA RIBERA,Av. De la rivera 2902,ITUZAINGO - GBA,Buenos Aires,-34.6330601,-58.7264294
NTI 2022 - CRISMI COMBUSTIBLES SRL,Mariano Moreno y esq. Pueyrredón,R. Saenz Peña,Chaco,-26.7806760,-60.4384710
FS 2022 - COMBUSTIBLE SAN MARTIN SRL,AV PTE PERON Y RODRIGUEZ PEÑA,VILLA LYNCH,Buenos Aires,-34.5788092,-58.5515522
FS 2022 - PERESSIN HNO SRL,ALMIRANTE BROWN 899,SAN SALVADOR DE JUJUY,Jujuy,-24.1991169,-65.2866393
NTI 2022 - BRACIA SA,RUTA N°12 KM 1541,ELDORADO,Misiones,-26.4195116,-54.6436521
NTI 2023 - Servicios Gral Guemes (Pinto),RN 34 KM 495,PINTO,Santiago del Estero,-29.1473792,-62.6472986
NTI 2023 - Los Quimbaletes E53,RUTA E53 Y AMADEO SABATTINI,RIO CEBALLOS,Córdoba,-31.2168134,-64.2757324
NTI 2023 - Combustibles Riojanos,AV ORTIZ DE OCAMPO Y CERRO AZUL,LA RIOJA,La Rioja,-29.4519263,-66.8601621
FS 2023 - October SA,AV WARNES 2040,CABA,Buenos Aires,-34.5968040,-58.4641780
FS 2023 - Octano SRL,AV PARAGUAY 1900,SALTA,Salta,-24.8130600,-65.4236500
NTI 2023 - Puebla San Juan,RN 20 y Acceso Aeropuerto San Juan,SAN JUAN,San Juan,-31.58158461,-68.42726641
NTI 2023 - Sinergy S.A,Av. Sarmiento 1510,RESISTENCIA,Chaco,-27.43911617,-58.97278742
NTI 2023 - Olavarria,RP 51 y Acceso Sur de la Ciudad de Olavarría,OLAVARRIA,Buenos Aires,-36.955117,-60.254556
FS 2023 - SEFAC Pehuajo,"RN 5 km 368,5 y Ruta 226",PEHUAJO,Buenos Aires,-35.84771,-61.90913
FS 2023 - Combustibles de Pinamar,"Ruta 2 Km. 51,5",LA PLATA,Buenos Aires,-34.98903,-58.14128
NTI 2023 - Domselaar,San Martin y RP 210,DOMSELAAR,Buenos Aires,-35.07485,-58.29365
FS 2023 - La Constructora,Santa Fe 402,SALTA,Salta,-24.79548,-65.40486
FS 2024 - Suarez Juan Jose,Ruta 226 y Ruta 55,BALCARCE,Buenos Aires,-37.818854,-58.220747
CORS ALEM,AV. LEANDRO N. ALEM 1180,CAPITAL FED ZONA ,Capital Federal,-34.5941000,-58.3738690
FS 2024 - Alejandro Tieppo,PTE. JUAN DOMINGO PERON 3115,LOS POLVORINES,Buenos Aires,-34.50131073,-58.69148657
NTI 2024 - Jorge Travani y Cía SRL,RP24 y Corrientes,Gral. Rodriguez,Buenos Aires,-34.636044,-58.945695
NTI 2024 - Land Oil Plottier,Av. Gral. Roca y  Candolle,Plottier,Neuquen,-38.9433680,-68.2379500
FS 2024 - Yapai,RUTA PROV 1 Y ACCESO FORTIN ALSINA,Intendente Alvear,La Pampa,-35.2332900,-63.6067400
FS 2024 - La Comercial Gas,AV. MARCONI 650 ,RIO CUARTO,Córdoba,-33.1170500,-64.3518700
NTI 2024 - ECONOMIC FUEL SRL,AUTOVIA RN 18 KM 207,SAN SALVADOR,Entre Rios,-31.6074800,-58.5254500
NTI 2024 - SANTA CRUZ ENERGY,Av. Asturias y Circunvalación,RIO GALLEGOS,Santa Cruz,-51.6434002,-69.3006544
FS 2024 - La Cuesta,"Av Ejército Argentino Km. 8,5 RP E 55",LA CALERA,Córdoba,"-31,35713 ","-64,31756 "
NTI 2024 - MAIPU MILENIA,Av. Maipú 3601 ,Corrientes,Corrientes,"-27,507489 ","-58,810320 "
NTI 2024 – PICO DE CHACO SRL,"RUTA NAC. 16 km 27,1",Puerto Tirol,Chaco,"-27,358626 ","-59,064031 "
FS 2025 - Oriente,JUAN BAUTISTA ALBERDI Nº 218,Oriente,Buenos Aires,-38.7412290,-60.6089220
FS 2025 - POTENXA SRL,Monseñor Bufano 2108,SAN JUSTO - GBA,Buenos Aires,-34.6800491,-58.5811247
NTI 2025 - VISION LA BANDA,Av. Belgrano 2450,LA BANDA,Santiago del Estero,-27.7498409,-64.2651683